[{"OBJECT_NAME":"STARLINK-30839","OBJECT_ID":"2023-170D","EPOCH":"2026-03-09T09:46:17.730624","MEAN_MOTION":15.26735182,"ECCENTRICITY":0.00033949,"INCLINATION":43.0028,"RA_OF_ASC_NODE":195.1906,"ARG_OF_PERICENTER":147.1104,"MEAN_ANOMALY":212.9959,"EPHEMERIS_TYPE":0,"CLASSIFICATION_TYPE":"U","NORAD_CAT_ID":58209,"ELEMENT_SET_NO":999,"REV_AT_EPOCH":13026,"BSTAR":-3.1104021e-5,"MEAN_MOTION_DOT":-1.095e-5,"MEAN_MOTION_DDOT":0},{"OBJECT_NAME":"DELTA 1 DEB","OBJECT_ID":"1977-065CC","EPOCH":"2026-03-09T22:33:14.085504","MEAN_MOTION":13.8497458,"ECCENTRICITY":0.06695418,"INCLINATION":28.9783,"RA_OF_ASC_NODE":359.1013,"ARG_OF_PERICENTER":308.7305,"MEAN_ANOMALY":45.5226,"EPHEMERIS_TYPE":0,"CLASSIFICATION_TYPE":"U","NORAD_CAT_ID":10251,"ELEMENT_SET_NO":999,"REV_AT_EPOCH":40349,"BSTAR":0.00050077095,"MEAN_MOTION_DOT":3.77e-5,"MEAN_MOTION_DDOT":0}]
